{
    "links": {
        "self": "http://www.neowsapp.com/rest/v1/neo/3672038?api_key=iIulBulltgU6a56xZRHN4H3l9WmuAYTsLGpBGhQ2"
    },
    "id": "3672038",
    "neo_reference_id": "3672038",
    "name": "(2014 KP2)",
    "designation": "2014 KP2",
    "nasa_jpl_url": "http://ssd.jpl.nasa.gov/sbdb.cgi?sstr=3672038",
    "absolute_magnitude_h": 26.7,
    "estimated_diameter": {
        "kilometers": {
            "estimated_diameter_min": 0.0121494041,
            "estimated_diameter_max": 0.0271668934
        },
        "meters": {
            "estimated_diameter_min": 12.14940408,
            "estimated_diameter_max": 27.1668934089
        },
        "miles": {
            "estimated_diameter_min": 0.0075492874,
            "estimated_diameter_max": 0.0168807197
        },
        "feet": {
            "estimated_diameter_min": 39.8602508817,
            "estimated_diameter_max": 89.1302305717
        }
    },
    "is_potentially_hazardous_asteroid": false,
    "close_approach_data": [
        {
            "close_approach_date": "1939-05-02",
            "close_approach_date_full": "1939-May-02 09:26",
            "epoch_date_close_approach": -967818840000,
            "relative_velocity": {
                "kilometers_per_second": "5.2006833746",
                "kilometers_per_hour": "18722.4601484394",
                "miles_per_hour": "11633.4086405678"
            },
            "miss_distance": {
                "astronomical": "0.0561735839",
                "lunar": "21.8515241371",
                "kilometers": "8403448.501706293",
                "miles": "5221660.7673331234"
            },
            "orbiting_body": "Earth"
        },
        {
            "close_approach_date": "2014-01-10",
            "close_approach_date_full": "2014-Jan-10 10:18",
            "epoch_date_close_approach": 1389349080000,
            "relative_velocity": {
                "kilometers_per_second": "3.5901238816",
                "kilometers_per_hour": "12924.4459736918",
                "miles_per_hour": "8030.7481107087"
            },
            "miss_distance": {
                "astronomical": "0.243772827",
                "lunar": "94.827629703",
                "kilometers": "36467895.68307849",
                "miles": "22660099.614683562"
            },
            "orbiting_body": "Earth"
        },
        {
            "close_approach_date": "2014-05-12",
            "close_approach_date_full": "2014-May-12 08:24",
            "epoch_date_close_approach": 1399883040000,
            "relative_velocity": {
                "kilometers_per_second": "6.4068281102",
                "kilometers_per_hour": "23064.581196754",
                "miles_per_hour": "14331.4337997275"
            },
            "miss_distance": {
                "astronomical": "0.0279568636",
                "lunar": "10.8752199404",
                "kilometers": "4182287.246440532",
                "miles": "2598752.7891700616"
            },
            "orbiting_body": "Earth"
        }
    ],
    "orbital_data": {
        "orbit_id": "4",
        "orbit_determination_date": "2017-04-06 08:40:26",
        "first_observation_date": "2014-05-21",
        "last_observation_date": "2014-05-22",
        "data_arc_in_days": 1,
        "observations_used": 15,
        "orbit_uncertainty": "8",
        "minimum_orbit_intersection": ".0274687",
        "jupiter_tisserand_invariant": "5.024",
        "epoch_osculation": "2456799.5",
        "eccentricity": ".2503086499163579",
        "semi_major_axis": "1.278192787806522",
        "inclination": "6.640651929828298",
        "ascending_node_longitude": "61.30477067942916",
        "orbital_period": "527.8286638056393",
        "perihelion_distance": ".9582500767578456",
        "perihelion_argument": "121.1649312958293",
        "aphelion_distance": "1.598135498855198",
        "perihelion_time": "2456746.542234562126",
        "mean_anomaly": "36.11928806627829",
        "mean_motion": ".6820395038882574",
        "equinox": "J2000",
        "orbit_class": {
            "orbit_class_type": "APO",
            "orbit_class_description": "Near-Earth asteroid orbits which cross the Earth’s orbit similar to that of 1862 Apollo",
            "orbit_class_range": "a (semi-major axis) > 1.0 AU; q (perihelion) < 1.017 AU"
        }
    },
    "is_sentry_object": false
}